#dP2018  5 23  0  0  0.00000000      96 __u+U ITR00 FIT  IAC
## 2002 259200.00000000   900.00000000 58261 0.0000000000000
+   85   C01C02C03C04C05C06C07C08C09C10C11C12C13C14E01E02E03
+        E04E05E07E08E09E11E12E14E18E19E24E26E30G01G02G03G05
+        G06G07G08G09G10G11G12G13G14G15G16G17G18G19G20G21G22
+        G23G24G25G26G27G28G29G30G31G32J03R01R02R03R04R05R07
+        R08R09R10R11R13R14R15R16R17R18R19R20R21R22R23R24R26
++        12 12 12 13 12  9  9  9  9  8  8  8  8  8  6  6  6
++         6  6  6  6  6  6  7  6  7  7  6  7  6  4  3  3  3
++         3  3  3  3  4  4  3  4  4  4  3  3  4  3  4  3  3
++         3  4  4  3  4  3  3  3  3  3 11  5  6  5  6  8  6
++         5  5  5  5  5  5  6  5  5  5  5  5  5  5  5  6  8
%c M  cc GPS ccc cccc cccc cccc cccc ccccc ccccc ccccc ccccc
%c cc cc ccc ccc cccc cccc cccc cccc ccccc ccccc ccccc ccccc
%f  0.0000000  0.000000000  0.00000000000  0.000000000000000
%f  0.0000000  0.000000000  0.00000000000  0.000000000000000
%i    0    0    0    0      0      0      0      0         0
%i    0    0    0    0      0      0      0      0         0
/* INFORMATION & ANALYSIS CENTER (IAC) OF MCC   (RAPID DATA)
/* S/V CLOCKS ARE ALIGNED TO GPS & GLONASS TIME RESPECTIVELY
/* USING THE BROADCAST EPHEMERIS                            
/* PCV:IGS14_2000 OL/AL:FES2004  NONE     YN ORB:CoN CLK:CoN
*  2018 05 23  4 45  0.00000000
PC01 -32246.864270  27132.845211   1099.662094   -263.021759
PC02   4359.860232  41925.676966   -929.604966    416.347671
PC03 -14878.075595  39420.096796    727.509608   -296.787296
PC04 -39628.079871  14426.334652    551.776214   -249.260350
PC05  21896.891407  36003.182589   -781.536607    409.647551
PC06  -7252.801276  28820.574920 -29511.633982     27.875253
PC07 -21362.787730  23135.144893  27930.835176    138.807204
PC08 -20512.517549  36932.261060   1913.177287    352.994001
PC09   5271.720396  37026.779431 -18959.774346   -104.793432
PC10  -3568.855990  25749.471471  33268.414833   -252.700682
PC11  13964.389509 -12174.887962 -20793.197568   -519.105107
PC12  14343.943365  10130.192310 -21656.264409    452.055603
PC13 -10987.564889  39150.651693 -11572.571009   -343.473428
PC14  21136.100376  -2535.076540  18080.751043    348.638252
PE01  14115.097968  12692.396851  22708.200429   -351.073194
PE02 -14134.542850 -12688.687630 -22708.418368     14.260880
PE03 -17212.857372 -23953.168991   2421.934705    -35.169988
PE04  22878.333371  10997.024592  15234.803371    -39.860574
PE05  -1445.037749 -22905.240167  18703.421715    260.151995
PE07 -15116.307462   8457.918582 -23987.733263     28.269100
PE08 -22905.799018 -10861.823992 -15262.757917   6579.208230
PE09  14975.823629  -8465.035704  24103.253549   6784.283929
PE11  17306.129062 -19429.747718 -14139.625390    233.198401
PE12  16865.435217   1419.931481 -24282.094756   4217.624562
PE14   9827.523297 -24574.105771 -17556.871208   6578.671588
PE18   -659.762310  24186.329187   6041.288961   6188.108921
PE19  16185.328964  24421.646232  -4183.688860     22.519436
PE24  25620.095658 -10826.302569 -10127.462784   6692.324162
PE26  -7892.159189  28282.237777  -3725.430376   5906.708988
PE30 -28206.528918  -1384.198773  -8887.247526   5818.464040
PG01 -11435.717262  21433.762128 -10512.355827    -50.018891
PG02  20750.761190 -12661.994437  -9847.910702    107.446234
PG03  -4206.241841  14636.954320 -21779.267555     75.585702
PG05  22989.146160  -3852.717323  12826.739070     -7.448255
PG06  17897.219417    973.799338 -19575.814603    401.578630
PG07   3267.394239  16773.536808  20428.914231    187.400970
PG08  -7231.624857  18610.135995  17485.231412   -102.207360
PG09   7999.964590  25289.696105   1193.811854    514.139933
PG10 -23306.282274 -11041.649507   6731.785296    185.947517
PG11  -8253.132682  25309.514093  -1647.567267   -735.727006
PG12   8303.163014 -12584.278395 -22037.339151    332.041093
PG13  12976.150459 -10053.415175  20771.440278    -94.222274
PG14 -15603.244675  -5508.189671 -20516.828952    -97.037424
PG15   5579.311022 -20045.239898  16074.912402   -353.823177
PG16 -23363.731367    653.665446  12847.462661     23.929034
PG17  14199.261182  15467.073322 -15952.863505    -95.439487
PG18 -16521.140754  20569.451794  -2453.278723     12.465092
PG19  15280.664495   7278.894428 -20714.289659   -434.249124
PG20 -11128.764467 -15593.356360  18313.048871    508.811723
PG21  -7445.055622 -14939.279323  21468.055716   -391.465409
PG22 -13536.094683  11997.022113 -19202.938777   -401.031402
PG23  -1066.232479  24044.046707 -10455.836483   -216.774646
PG24  13357.040882 -21794.672387  -6757.784015    -50.088551
PG25  -7410.327523 -16111.320776 -20029.287668   -589.371293
PG26 -26110.729829  -4369.434355   2897.890068   -140.167113
PG27 -13753.040763   5704.213885  21903.787087    368.401816
PG28  20274.952991  14359.250826   9938.997075    717.526686
PG29  -4455.275040 -26162.442382  -1292.202835    445.330783
PG30  12019.536533  10063.612691  21456.320259     71.063546
PG31 -19182.227735    401.220861 -18504.744091    119.750115
PG32 -15429.790102 -15229.414636 -15363.630105   -505.664330
PJ03 -25724.984271  24382.287964  27917.714617    -14.710250
PR01   6262.110247  16755.103414 -18184.614225     26.609531
PR02  19074.774962  16886.158634   -580.265431    311.107619
PR03  18965.807451   6374.305692  15842.066575    132.943731
PR04   7396.123359  -8137.300666  23038.124130    261.963843
PR05  -7905.005469 -17333.577532  16955.988648    -12.729677
PR07 -18837.965022  -6165.685564 -16035.981150    -38.244098
PR08  -7950.570534   7607.762080 -22954.968586     23.054298
PR09 -14865.660378  -5213.995399 -20030.340756     26.830321
PR10 -24099.437724   4792.130019  -6714.434370     24.871620
PR11 -19337.324954  12215.065827  11252.899263    -29.471719
PR13  15061.291294   4608.008256  20044.762652    -10.687809
PR14  24120.504560  -4759.396606   6834.808101     27.493376
PR15  21659.538088 -10982.752325  -7641.033867    -10.606443
PR16   3821.169927 -12479.111823 -21921.606533     93.170544
PR17  11205.700612  -2466.097984 -22771.392129    134.506153
PR18  10138.134982 -18979.085123 -13741.800102    196.565728
PR19   3974.182249 -25000.327491   3167.916856    -53.069975
PR20  -5402.100811 -15903.115213  19225.650833   -338.938261
PR21 -11177.007051   2899.747052  22745.842785     15.267777
PR22  -9648.343131  20200.335121  12101.835747    -45.138273
PR23  -1656.070459  24479.079103  -6971.486275    155.260969
PR24   6151.596610  14942.255571 -19754.874090   -166.633166
PR26  -5459.263971 -16348.485261  18806.106494     21.274122
EOF
